{
  "type": "FeatureCollection",
  "features": [
    {
      "type": "Feature",
      "properties": {
        "norad_id": 41330,
        "name": "COSMOS 2514 (751)",
        "group": "gnss",
        "lat": 22.49936788908379,
        "lon": 128.0904030538438,
        "alt_km": 19114.70339810178,
        "timestamp": "2025-12-19T06:59:44.150917+00:00",
        "meta_object_name": "COSMOS 2514 (751)",
        "meta_object_id": "2016-008A",
        "meta_epoch": "2025-12-18T03:36:56.540160",
        "meta_mean_motion": 2.13102695,
        "meta_eccentricity": 0.00118514,
        "meta_inclination": 65.1307,
        "meta_ra_of_asc_node": 319.2187,
        "meta_arg_of_pericenter": 220.1582,
        "meta_mean_anomaly": 139.7456,
        "meta_ephemeris_type": 0,
        "meta_classification_type": "U",
        "meta_norad_cat_id": 41330,
        "meta_element_set_no": 999,
        "meta_rev_at_epoch": 7676,
        "meta_bstar": 0,
        "meta_mean_motion_dot": -6.5e-07,
        "meta_mean_motion_ddot": 0,
        "tle_line1": "1 41330U 16008A   25352.15065440 -.00000065  00000+0  00000+0 0  9998",
        "tle_line2": "2 41330  65.1307 319.2187 0011851 220.1582 139.7456  2.13102695 76762"
      },
      "geometry": {
        "type": "Point",
        "coordinates": [
          128.0904030538438,
          22.49936788908379
        ]
      }
    },
    {
      "type": "Feature",
      "properties": {
        "norad_id": 41384,
        "name": "IRNSS-1F",
        "group": "gnss",
        "lat": 4.031118807440861,
        "lon": -134.63076050034962,
        "alt_km": 35732.24329517509,
        "timestamp": "2025-12-19T06:59:44.150930+00:00",
        "meta_object_name": "IRNSS-1F",
        "meta_object_id": "2016-015A",
        "meta_epoch": "2025-12-18T13:26:55.794336",
        "meta_mean_motion": 1.00275515,
        "meta_eccentricity": 0.00226475,
        "meta_inclination": 4.8955,
        "meta_ra_of_asc_node": 101.1536,
        "meta_arg_of_pericenter": 181.4277,
        "meta_mean_anomaly": 38.9776,
        "meta_ephemeris_type": 0,
        "meta_classification_type": "U",
        "meta_norad_cat_id": 41384,
        "meta_element_set_no": 999,
        "meta_rev_at_epoch": 3585,
        "meta_bstar": 0,
        "meta_mean_motion_dot": 1.79e-06,
        "meta_mean_motion_ddot": 0,
        "tle_line1": "1 41384U 16015A   25352.56036799  .00000179  00000+0  00000+0 0  9990",
        "tle_line2": "2 41384   4.8955 101.1536 0022647 181.4277  38.9776  1.00275515 35858"
      },
      "geometry": {
        "type": "Point",
        "coordinates": [
          -134.63076050034962,
          4.031118807440861
        ]
      }
    },
    {
      "type": "Feature",
      "properties": {
        "norad_id": 41434,
        "name": "BEIDOU-2 IGSO-6 (C13)",
        "group": "gnss",
        "lat": -52.684516868040184,
        "lon": -90.84098579423059,
        "alt_km": 35538.84634635836,
        "timestamp": "2025-12-19T06:59:44.150941+00:00",
        "meta_object_name": "BEIDOU-2 IGSO-6 (C13)",
        "meta_object_id": "2016-021A",
        "meta_epoch": "2025-12-18T14:33:38.837664",
        "meta_mean_motion": 1.00292299,
        "meta_eccentricity": 0.00610054,
        "meta_inclination": 59.9732,
        "meta_ra_of_asc_node": 39.8392,
        "meta_arg_of_pericenter": 230.2031,
        "meta_mean_anomaly": 129.1398,
        "meta_ephemeris_type": 0,
        "meta_classification_type": "U",
        "meta_norad_cat_id": 41434,
        "meta_element_set_no": 999,
        "meta_rev_at_epoch": 3566,
        "meta_bstar": 0,
        "meta_mean_motion_dot": -1.41e-06,
        "meta_mean_motion_ddot": 0,
        "tle_line1": "1 41434U 16021A   25352.60669951 -.00000141  00000+0  00000+0 0  9990",
        "tle_line2": "2 41434  59.9732  39.8392 0061005 230.2031 129.1398  1.00292299 35667"
      },
      "geometry": {
        "type": "Point",
        "coordinates": [
          -90.84098579423059,
          -52.684516868040184
        ]
      }
    },
    {
      "type": "Feature",
      "properties": {
        "norad_id": 41469,
        "name": "IRNSS-1G",
        "group": "gnss",
        "lat": -3.106965980953256,
        "lon": -37.56679174854728,
        "alt_km": 35788.938910287354,
        "timestamp": "2025-12-19T06:59:44.150953+00:00",
        "meta_object_name": "IRNSS-1G",
        "meta_object_id": "2016-027A",
        "meta_epoch": "2025-12-18T19:50:51.522144",
        "meta_mean_motion": 1.00277214,
        "meta_eccentricity": 0.00025908,
        "meta_inclination": 4.749,
        "meta_ra_of_asc_node": 101.9404,
        "meta_arg_of_pericenter": 331.2861,
        "meta_mean_anomaly": 81.6468,
        "meta_ephemeris_type": 0,
        "meta_classification_type": "U",
        "meta_norad_cat_id": 41469,
        "meta_element_set_no": 999,
        "meta_rev_at_epoch": 3537,
        "meta_bstar": 0,
        "meta_mean_motion_dot": -3.13e-06,
        "meta_mean_motion_ddot": 0,
        "tle_line1": "1 41469U 16027A   25352.82698521 -.00000313  00000+0  00000+0 0  9994",
        "tle_line2": "2 41469   4.7490 101.9404 0002590 331.2861  81.6468  1.00277214 35374"
      },
      "geometry": {
        "type": "Point",
        "coordinates": [
          -37.56679174854728,
          -3.106965980953256
        ]
      }
    },
    {
      "type": "Feature",
      "properties": {
        "norad_id": 41549,
        "name": "GSAT0211 (GALILEO 14)",
        "group": "gnss",
        "lat": -5.230745281589971,
        "lon": -136.9983539485051,
        "alt_km": 23212.105858666353,
        "timestamp": "2025-12-19T06:59:44.150982+00:00",
        "meta_object_name": "GSAT0211 (GALILEO 14)",
        "meta_object_id": "2016-030A",
        "meta_epoch": "2025-12-14T00:32:28.498848",
        "meta_mean_motion": 1.70473201,
        "meta_eccentricity": 0.000407,
        "meta_inclination": 55.1518,
        "meta_ra_of_asc_node": 226.7881,
        "meta_arg_of_pericenter": 16.5595,
        "meta_mean_anomaly": 343.5367,
        "meta_ephemeris_type": 0,
        "meta_classification_type": "U",
        "meta_norad_cat_id": 41549,
        "meta_element_set_no": 999,
        "meta_rev_at_epoch": 5951,
        "meta_bstar": 0,
        "meta_mean_motion_dot": 2.8e-07,
        "meta_mean_motion_ddot": 0,
        "tle_line1": "1 41549U 16030A   25348.02255207  .00000028  00000+0  00000+0 0  9996",
        "tle_line2": "2 41549  55.1518 226.7881 0004070  16.5595 343.5367  1.70473201 59512"
      },
      "geometry": {
        "type": "Point",
        "coordinates": [
          -136.9983539485051,
          -5.230745281589971
        ]
      }
    },
    {
      "type": "Feature",
      "properties": {
        "norad_id": 41550,
        "name": "GSAT0210 (GALILEO 13)",
        "group": "gnss",
        "lat": -12.828113943217856,
        "lon": 55.77737825077955,
        "alt_km": 23221.981782169252,
        "timestamp": "2025-12-19T06:59:44.151008+00:00",
        "meta_object_name": "GSAT0210 (GALILEO 13)",
        "meta_object_id": "2016-030B",
        "meta_epoch": "2025-12-17T05:06:34.590240",
        "meta_mean_motion": 1.70473746,
        "meta_eccentricity": 9.221e-05,
        "meta_inclination": 55.1502,
        "meta_ra_of_asc_node": 226.6984,
        "meta_arg_of_pericenter": 234.8094,
        "meta_mean_anomaly": 125.2822,
        "meta_ephemeris_type": 0,
        "meta_classification_type": "U",
        "meta_norad_cat_id": 41550,
        "meta_element_set_no": 999,
        "meta_rev_at_epoch": 5956,
        "meta_bstar": 0,
        "meta_mean_motion_dot": 5.5e-07,
        "meta_mean_motion_ddot": 0,
        "tle_line1": "1 41550U 16030B   25351.21290035  .00000055  00000+0  00000+0 0  9991",
        "tle_line2": "2 41550  55.1502 226.6984 0000922 234.8094 125.2822  1.70473746 59561"
      },
      "geometry": {
        "type": "Point",
        "coordinates": [
          55.77737825077955,
          -12.828113943217856
        ]
      }
    },
    {
      "type": "Feature",
      "properties": {
        "norad_id": 41586,
        "name": "BEIDOU-2 G7 (C03)",
        "group": "gnss",
        "lat": -1.48374890819753,
        "lon": -56.537133191285484,
        "alt_km": 35799.47158056898,
        "timestamp": "2025-12-19T06:59:44.151033+00:00",
        "meta_object_name": "BEIDOU-2 G7 (C03)",
        "meta_object_id": "2016-037A",
        "meta_epoch": "2025-12-18T22:22:54.904224",
        "meta_mean_motion": 1.00272356,
        "meta_eccentricity": 0.00051377,
        "meta_inclination": 1.7716,
        "meta_ra_of_asc_node": 67.8373,
        "meta_arg_of_pericenter": 3.1732,
        "meta_mean_anomaly": 102.9604,
        "meta_ephemeris_type": 0,
        "meta_classification_type": "U",
        "meta_norad_cat_id": 41586,
        "meta_element_set_no": 999,
        "meta_rev_at_epoch": 508,
        "meta_bstar": 0,
        "meta_mean_motion_dot": -3.3e-06,
        "meta_mean_motion_ddot": 0,
        "tle_line1": "1 41586U 16037A   25352.93257991 -.00000330  00000+0  00000+0 0  9998",
        "tle_line2": "2 41586   1.7716  67.8373 0005137   3.1732 102.9604  1.00272356  5085"
      },
      "geometry": {
        "type": "Point",
        "coordinates": [
          -56.537133191285484,
          -1.48374890819753
        ]
      }
    }
  ]
}